NORAD_CAT_ID,OBJECT_NAME,OBJECT_TYPE,EPOCH,MEAN_MOTION,ECCENTRICITY,INCLINATION,RA_OF_ASC_NODE,ARG_OF_PERICENTER,MEAN_ANOMALY,BSTAR,MEAN_MOTION_DOT,MEAN_MOTION_DDOT,TLE_LINE0,TLE_LINE1,TLE_LINE2,SEMIMAJOR_AXIS,PERIOD,APOGEE,PERIGEE,DECAYED
55670.0,STARLINK-5423,PAYLOAD,2024-04-22 04:19:14,14.98339371,0.000233,70.0002,95.3288,239.3096,120.7834,6.9017e-05,7.31e-06,0.0,0 STARLINK-5423,1 55670U 23021AU  24113.18003251  .00000731  00000-0  69017-4 0  9990,2 55670  70.0002  95.3288 0002330 239.3096 120.7834 14.98339371 66150,6950.164,96.106,573.648,570.41,0.0
55670.0,STARLINK-5423,PAYLOAD,2024-04-22 09:07:38,14.98339476,0.0002229,70.0001,94.822,246.9767,113.1157,8.5093e-05,9.23e-06,0.0,0 STARLINK-5423,1 55670U 23021AU  24113.38031140  .00000923  00000-0  85093-4 0  9995,2 55670  70.0001  94.8220 0002229 246.9767 113.1157 14.98339476 66481,6950.164,96.106,573.578,570.479,0.0
55670.0,STARLINK-5423,PAYLOAD,2024-04-23 04:21:17,14.98318429,0.0002742,69.9991,92.802,266.572,93.5126,6.0089e-05,6.24e-06,0.0,0 STARLINK-5423,1 55670U 23021AU  24114.18144734  .00000624  00000-0  60089-4 0  9994,2 55670  69.9991  92.8020 0002742 266.5720  93.5126 14.98318429 66302,6950.229,96.108,573.999,570.188,0.0
55670.0,STARLINK-5423,PAYLOAD,2024-04-23 09:09:41,14.98319373,0.0002763,69.9993,92.2975,264.32,95.7643,5.5018e-05,5.63e-06,0.0,0 STARLINK-5423,1 55670U 23021AU  24114.38172811  .00000563  00000-0  55018-4 0  9991,2 55670  69.9993  92.2975 0002763 264.3200  95.7643 14.98319373 66632,6950.226,96.108,574.011,570.17,0.0
55670.0,STARLINK-5423,PAYLOAD,2024-04-24 02:47:09,14.98337612,0.0002975,69.9987,90.444,275.211,84.8709,3.0586e-05,2.72e-06,0.0,0 STARLINK-5423,1 55670U 23021AU  24115.11607717  .00000272  00000-0  30586-4 0  9991,2 55670  69.9987  90.4440 0002975 275.2110  84.8709 14.98337612 66445,6950.169,96.107,574.102,569.967,0.0
55670.0,STARLINK-5423,PAYLOAD,2024-04-24 07:35:32,14.98345323,0.0002779,69.9993,89.9402,262.2453,97.8391,0.00012625,1.414e-05,0.0,0 STARLINK-5423,1 55670U 23021AU  24115.31634834  .00001414  00000-0  12625-3 0  9995,2 55670  69.9993  89.9402 0002779 262.2453  97.8391 14.98345323 66473,6950.146,96.106,573.942,570.079,0.0
55670.0,STARLINK-5423,PAYLOAD,2024-04-24 22:00:46,14.98321935,0.0003297,69.998,88.4244,268.5051,91.573,4.1459e-05,4.02e-06,0.0,0 STARLINK-5423,1 55670U 23021AU  24115.91720603  .00000402  00000-0  41459-4 0  9995,2 55670  69.9980  88.4244 0003297 268.5051  91.5730 14.98321935 66860,6950.218,96.108,574.374,569.791,0.0
55670.0,STARLINK-5423,PAYLOAD,2024-04-25 04:25:19,14.98306759,0.0002444,70.0017,87.7549,237.7771,122.3151,5.8624e-06,-2.3e-07,0.0,0 STARLINK-5423,1 55670U 23021AU  24116.18425854 -.00000023  00000-0  58624-5 0  9998,2 55670  70.0017  87.7549 0002444 237.7771 122.3151 14.98306759 66603,6950.265,96.108,573.828,570.431,0.0
55670.0,STARLINK-5423,PAYLOAD,2024-04-25 07:37:35,14.98321112,0.0002812,69.9995,87.4155,262.2771,97.8069,-4.3212e-05,-6.08e-06,0.0,0 STARLINK-5423,1 55670U 23021AU  24116.31777067 -.00000608  00000-0 -43212-4 0  9995,2 55670  69.9995  87.4155 0002812 262.2771  97.8069 14.98321112 66623,6950.22,96.108,574.04,570.131,0.0
55670.0,STARLINK-5423,PAYLOAD,2024-04-25 22:02:47,14.98339078,0.0002675,70.0,85.9015,270.1217,89.9636,2.9002e-05,2.53e-06,0.0,0 STARLINK-5423,1 55670U 23021AU  24116.91859956  .00000253  00000-0  29002-4 0  9994,2 55670  70.0000  85.9015 0002675 270.1217  89.9636 14.98339078 67017,6950.165,96.106,573.889,570.171,0.0
55670.0,STARLINK-5423,PAYLOAD,2024-04-26 04:27:18,14.98341066,0.0002683,70.0001,85.2272,256.4981,103.5879,5.887e-05,6.1e-06,0.0,0 STARLINK-5423,1 55670U 23021AU  24117.18563469  .00000610  00000-0  58870-4 0  9997,2 55670  70.0001  85.2272 0002683 256.4981 103.5879 14.98341066 66752,6950.159,96.106,573.888,570.159,0.0
55670.0,STARLINK-5423,PAYLOAD,2024-04-26 07:39:34,14.98342353,0.0002791,70.0002,84.8895,267.0975,92.9865,0.00015219,1.724e-05,0.0,0 STARLINK-5423,1 55670U 23021AU  24117.31915121  .00001724  00000-0  15219-3 0  9994,2 55670  70.0002  84.8895 0002791 267.0975  92.9865 14.98342353 67072,6950.155,96.106,573.959,570.08,0.0
55670.0,STARLINK-5423,PAYLOAD,2024-04-26 22:04:47,14.98327493,0.0002921,70.0011,83.3748,274.4907,85.5918,0.00037202,4.348e-05,0.0,0 STARLINK-5423,1 55670U 23021AU  24117.91999328  .00004348  00000-0  37202-3 0  9992,2 55670  70.0011  83.3748 0002921 274.4907  85.5918 14.98327493 67160,6950.201,96.107,574.096,570.035,0.0
55670.0,STARLINK-5423,PAYLOAD,2024-04-27 04:29:21,14.98247512,0.000282,70.0004,82.7013,281.7517,78.3326,0.0018631,0.0002216,0.0,0 STARLINK-5423,1 55670U 23021AU  24118.18705585  .00022160  00000-0  18631-2 0  9998,2 55670  70.0004  82.7013 0002820 281.7517  78.3326 14.98247512 66903,6950.448,96.112,574.273,570.353,0.0
55670.0,STARLINK-5423,PAYLOAD,2024-04-27 07:41:35,14.98333285,0.0002994,70.0001,82.3647,271.141,88.9406,0.00026769,3.103e-05,0.0,0 STARLINK-5423,1 55670U 23021AU  24118.32055170  .00003103  00000-0  26769-3 0  9990,2 55670  70.0001  82.3647 0002994 271.1410  88.9406 14.98333285 66927,6950.183,96.107,574.129,569.967,0.0
55670.0,STARLINK-5423,PAYLOAD,2024-04-27 22:06:49,14.9832901,0.0002426,70.0015,80.8539,250.0502,110.0396,-8.7264e-05,-1.134e-05,0.0,0 STARLINK-5423,1 55670U 23021AU  24118.92140138 -.00001134  00000-0 -87264-4 0  9997,2 55670  70.0015  80.8539 0002426 250.0502 110.0396 14.98329010 67313,6950.196,96.107,573.747,570.375,0.0
55670.0,STARLINK-5423,PAYLOAD,2024-04-28 04:31:21,14.98328125,0.000251,70.0005,80.1791,254.8902,105.1979,-0.00011923,-1.515e-05,0.0,0 STARLINK-5423,1 55670U 23021AU  24119.18844274 -.00001515  00000-0 -11923-3 0  9999,2 55670  70.0005  80.1791 0002510 254.8902 105.1979 14.98328125 67054,6950.199,96.107,573.808,570.319,0.0
55670.0,STARLINK-5423,PAYLOAD,2024-04-28 14:08:10,14.98316879,0.0002427,70.0017,79.1667,274.4564,85.6318,-0.00023651,-2.913e-05,0.0,0 STARLINK-5423,1 55670U 23021AU  24119.58901483 -.00002913  00000-0 -23651-3 0  9993,2 55670  70.0017  79.1667 0002427 274.4564  85.6318 14.98316879 67418,6950.233,96.108,573.785,570.412,0.0
55670.0,STARLINK-5423,PAYLOAD,2024-04-28 22:08:51,14.98310842,0.0002405,70.0001,78.3252,274.855,85.2335,-0.00022444,-2.768e-05,0.0,0 STARLINK-5423,1 55670U 23021AU  24119.92282175 -.00002768  00000-0 -22444-3 0  9998,2 55670  70.0001  78.3252 0002405 274.8550  85.2335 14.98310842 67461,6950.252,96.108,573.789,570.446,0.0
55670.0,STARLINK-5423,PAYLOAD,2024-04-29 04:33:23,14.98322177,0.0002292,70.0016,77.6557,244.2226,115.8696,-9.64e-05,-1.243e-05,0.0,0 STARLINK-5423,1 55670U 23021AU  24120.18985369 -.00001243  00000-0 -96400-4 0  9994,2 55670  70.0016  77.6557 0002292 244.2226 115.8696 14.98322177 67208,6950.217,96.108,573.675,570.489,0.0
55670.0,STARLINK-5423,PAYLOAD,2024-04-29 07:45:39,14.98327836,0.0002802,69.9999,77.3157,263.1929,96.8911,-4.4801e-05,-6.27e-06,0.0,0 STARLINK-5423,1 55670U 23021AU  24120.32336819 -.00000627  00000-0 -44801-4 0  9993,2 55670  69.9999  77.3157 0002802 263.1929  96.8911 14.98327836 67222,6950.2,96.107,574.012,570.117,0.0
55670.0,STARLINK-5423,PAYLOAD,2024-04-29 14:10:10,14.98334801,0.0003056,69.9994,76.6419,269.2086,90.8723,-2.096e-05,-3.43e-06,0.0,0 STARLINK-5423,1 55670U 23021AU  24120.59040303 -.00000343  00000-0 -20960-4 0  9997,2 55670  69.9994  76.6419 0003056 269.2086  90.8723 14.98334801 67565,6950.178,96.107,574.167,569.919,0.0
55670.0,STARLINK-5423,PAYLOAD,2024-04-29 22:10:51,14.98328268,0.0003096,69.9988,75.7994,271.5575,88.5229,0.00015605,1.769e-05,0.0,0 STARLINK-5423,1 55670U 23021AU  24120.92420435  .00001769  00000-0  15605-3 0  9992,2 55670  69.9988  75.7994 0003096 271.5575  88.5229 14.98328268 67610,6950.198,96.107,574.215,569.911,0.0
55670.0,STARLINK-5423,PAYLOAD,2024-04-30 14:12:11,14.98334058,0.0002845,69.9995,74.1171,270.445,89.6383,0.000151,1.709e-05,0.0,0 STARLINK-5423,1 55670U 23021AU  24121.59180054  .00001709  00000-0  15100-3 0  9990,2 55670  69.9995  74.1171 0002845 270.4450  89.6383 14.98334058 67717,6950.18,96.107,574.023,570.068,0.0
55670.0,STARLINK-5423,PAYLOAD,2024-04-30 22:12:52,14.98320901,0.0002937,69.9998,73.2758,270.6633,89.4189,0.0003719,4.346e-05,0.0,0 STARLINK-5423,1 55670U 23021AU  24121.92560394  .00004346  00000-0  37190-3 0  9999,2 55670  69.9998  73.2758 0002937 270.6633  89.4189 14.98320901 67767,6950.221,96.108,574.127,570.045,0.0
55670.0,STARLINK-5423,PAYLOAD,2024-05-01 04:37:24,14.983196,0.0002478,70.0009,72.6014,261.1878,98.9001,0.00031401,3.655e-05,0.0,0 STARLINK-5423,1 55670U 23021AU  24122.19264667  .00003655  00000-0  31401-3 0  9994,2 55670  70.0009  72.6014 0002478 261.1878  98.9001 14.98319600 67501,6950.225,96.108,573.812,570.368,0.0
55670.0,STARLINK-5423,PAYLOAD,2024-05-01 14:14:12,14.98341141,0.0002844,70.0001,71.5911,270.5723,89.511,5.9969e-05,6.23e-06,0.0,0 STARLINK-5423,1 55670U 23021AU  24122.59319689  .00000623  00000-0  59969-4 0  9995,2 55670  70.0001  71.5911 0002844 270.5723  89.5110 14.98341141 67868,6950.158,96.106,574.0,570.047,0.0
55670.0,STARLINK-5423,PAYLOAD,2024-05-01 20:38:44,14.98340656,0.0002909,70.0002,70.9175,269.5398,90.5427,6.7107e-06,-1.3e-07,0.0,0 STARLINK-5423,1 55670U 23021AU  24122.86023628 -.00000013  00000-0  67107-5 0  9998,2 55670  70.0002  70.9175 0002909 269.5398  90.5427 14.98340656 67900,6950.16,96.106,574.047,570.003,0.0
55670.0,STARLINK-5423,PAYLOAD,2024-05-02 14:16:12,14.98340395,0.0002782,70.0001,69.067,267.438,92.646,-7.8241e-05,-1.027e-05,0.0,0 STARLINK-5423,1 55670U 23021AU  24123.59459310 -.00001027  00000-0 -78241-4 0  9997,2 55670  70.0001  69.0670 0002782 267.4380  92.6460 14.98340395 68018,6950.161,96.106,573.959,570.092,0.0
55670.0,STARLINK-5423,PAYLOAD,2024-05-02 20:40:45,14.98334213,0.0002924,70.0001,68.3938,270.1683,89.9141,4.5146e-09,-9.3e-07,0.0,0 STARLINK-5423,1 55670U 23021AU  24123.86163342 -.00000093  00000-0  45146-8 0  9997,2 55670  70.0001  68.3938 0002924 270.1683  89.9141 14.98334213 67759,6950.18,96.107,574.077,570.013,0.0
